{
  "type": "FeatureCollection",
  "features": [
    {
      "type": "Feature",
      "properties": {
        "norad_id": 29486,
        "name": "GPS BIIRM-2 (PRN 31)",
        "group": "gps-ops",
        "lat": -37.43891905246731,
        "lon": 126.16003227321943,
        "alt_km": 20233.989074970752,
        "timestamp": "2025-12-04T23:34:05.981328+00:00",
        "meta_object_name": "GPS BIIRM-2 (PRN 31)",
        "meta_object_id": "2006-042A",
        "meta_epoch": "2025-12-04T13:13:00.041088",
        "meta_mean_motion": 2.00554363,
        "meta_eccentricity": 0.0107357,
        "meta_inclination": 54.6929,
        "meta_ra_of_asc_node": 159.0658,
        "meta_arg_of_pericenter": 51.7626,
        "meta_mean_anomaly": 309.8697,
        "meta_ephemeris_type": 0,
        "meta_classification_type": "U",
        "meta_norad_cat_id": 29486,
        "meta_element_set_no": 999,
        "meta_rev_at_epoch": 14049,
        "meta_bstar": 0,
        "meta_mean_motion_dot": 8.8e-07,
        "meta_mean_motion_ddot": 0,
        "tle_line1": "1 29486U 06042A   25338.55069492  .00000088  00000+0  00000+0 0  9996",
        "tle_line2": "2 29486  54.6929 159.0658 0107357  51.7626 309.8697  2.00554363140498"
      },
      "geometry": {
        "type": "Point",
        "coordinates": [
          126.16003227321943,
          -37.43891905246731
        ]
      }
    },
    {
      "type": "Feature",
      "properties": {
        "norad_id": 29601,
        "name": "GPS BIIRM-3 (PRN 12)",
        "group": "gps-ops",
        "lat": 7.455199788947395,
        "lon": -133.0262671529701,
        "alt_km": 20131.219445796003,
        "timestamp": "2025-12-04T23:34:05.981339+00:00",
        "meta_object_name": "GPS BIIRM-3 (PRN 12)",
        "meta_object_id": "2006-052A",
        "meta_epoch": "2025-12-03T23:20:07.183104",
        "meta_mean_motion": 2.00572838,
        "meta_eccentricity": 0.0087566,
        "meta_inclination": 54.9725,
        "meta_ra_of_asc_node": 221.7462,
        "meta_arg_of_pericenter": 87.3484,
        "meta_mean_anomaly": 273.7439,
        "meta_ephemeris_type": 0,
        "meta_classification_type": "U",
        "meta_norad_cat_id": 29601,
        "meta_element_set_no": 999,
        "meta_rev_at_epoch": 13949,
        "meta_bstar": 0,
        "meta_mean_motion_dot": 6.3e-07,
        "meta_mean_motion_ddot": 0,
        "tle_line1": "1 29601U 06052A   25337.97230536  .00000063  00000+0  00000+0 0  9993",
        "tle_line2": "2 29601  54.9725 221.7462 0087566  87.3484 273.7439  2.00572838139498"
      },
      "geometry": {
        "type": "Point",
        "coordinates": [
          -133.0262671529701,
          7.455199788947395
        ]
      }
    },
    {
      "type": "Feature",
      "properties": {
        "norad_id": 32260,
        "name": "GPS BIIRM-4 (PRN 15)",
        "group": "gps-ops",
        "lat": 22.172397422810047,
        "lon": -109.17545582411958,
        "alt_km": 20003.07582259541,
        "timestamp": "2025-12-04T23:34:05.981351+00:00",
        "meta_object_name": "GPS BIIRM-4 (PRN 15)",
        "meta_object_id": "2007-047A",
        "meta_epoch": "2025-12-02T18:46:05.230272",
        "meta_mean_motion": 2.00564824,
        "meta_eccentricity": 0.01643753,
        "meta_inclination": 53.9483,
        "meta_ra_of_asc_node": 88.1698,
        "meta_arg_of_pericenter": 85.1293,
        "meta_mean_anomaly": 276.722,
        "meta_ephemeris_type": 0,
        "meta_classification_type": "U",
        "meta_norad_cat_id": 32260,
        "meta_element_set_no": 999,
        "meta_rev_at_epoch": 13287,
        "meta_bstar": 0,
        "meta_mean_motion_dot": -1.7e-07,
        "meta_mean_motion_ddot": 0,
        "tle_line1": "1 32260U 07047A   25336.78200498 -.00000017  00000+0  00000+0 0  9995",
        "tle_line2": "2 32260  53.9483  88.1698 0164375  85.1293 276.7220  2.00564824132879"
      },
      "geometry": {
        "type": "Point",
        "coordinates": [
          -109.17545582411958,
          22.172397422810047
        ]
      }
    },
    {
      "type": "Feature",
      "properties": {
        "norad_id": 32384,
        "name": "GPS BIIRM-5 (PRN 29)",
        "group": "gps-ops",
        "lat": -54.05657838123243,
        "lon": -151.48055740189247,
        "alt_km": 20225.302347188786,
        "timestamp": "2025-12-04T23:34:05.981363+00:00",
        "meta_object_name": "GPS BIIRM-5 (PRN 29)",
        "meta_object_id": "2007-062A",
        "meta_epoch": "2025-12-02T20:24:02.738880",
        "meta_mean_motion": 2.00576658,
        "meta_eccentricity": 0.00322118,
        "meta_inclination": 55.191,
        "meta_ra_of_asc_node": 282.0427,
        "meta_arg_of_pericenter": 162.849,
        "meta_mean_anomaly": 16.9412,
        "meta_ephemeris_type": 0,
        "meta_classification_type": "U",
        "meta_norad_cat_id": 32384,
        "meta_element_set_no": 999,
        "meta_rev_at_epoch": 13157,
        "meta_bstar": 0,
        "meta_mean_motion_dot": -4.3e-07,
        "meta_mean_motion_ddot": 0,
        "tle_line1": "1 32384U 07062A   25336.85003170 -.00000043  00000+0  00000+0 0  9994",
        "tle_line2": "2 32384  55.1910 282.0427 0032211 162.8490  16.9412  2.00576658131576"
      },
      "geometry": {
        "type": "Point",
        "coordinates": [
          -151.48055740189247,
          -54.05657838123243
        ]
      }
    },
    {
      "type": "Feature",
      "properties": {
        "norad_id": 32711,
        "name": "GPS BIIRM-6 (PRN 07)",
        "group": "gps-ops",
        "lat": -18.083411594715336,
        "lon": -8.82567178050865,
        "alt_km": 19783.822203002885,
        "timestamp": "2025-12-04T23:34:05.981374+00:00",
        "meta_object_name": "GPS BIIRM-6 (PRN 07)",
        "meta_object_id": "2008-012A",
        "meta_epoch": "2025-12-04T04:45:15.966144",
        "meta_mean_motion": 2.00565138,
        "meta_eccentricity": 0.0202113,
        "meta_inclination": 54.4758,
        "meta_ra_of_asc_node": 157.7139,
        "meta_arg_of_pericenter": 244.8547,
        "meta_mean_anomaly": 113.0665,
        "meta_ephemeris_type": 0,
        "meta_classification_type": "U",
        "meta_norad_cat_id": 32711,
        "meta_element_set_no": 999,
        "meta_rev_at_epoch": 12984,
        "meta_bstar": 0,
        "meta_mean_motion_dot": 9.2e-07,
        "meta_mean_motion_ddot": 0,
        "tle_line1": "1 32711U 08012A   25338.19810146  .00000092  00000+0  00000+0 0  9995",
        "tle_line2": "2 32711  54.4758 157.7139 0202113 244.8547 113.0665  2.00565138129841"
      },
      "geometry": {
        "type": "Point",
        "coordinates": [
          -8.82567178050865,
          -18.083411594715336
        ]
      }
    },
    {
      "type": "Feature",
      "properties": {
        "norad_id": 35752,
        "name": "GPS BIIRM-8 (PRN 05)",
        "group": "gps-ops",
        "lat": -35.459136522668544,
        "lon": -116.29084563987551,
        "alt_km": 20295.666197181512,
        "timestamp": "2025-12-04T23:34:05.981386+00:00",
        "meta_object_name": "GPS BIIRM-8 (PRN 05)",
        "meta_object_id": "2009-043A",
        "meta_epoch": "2025-12-01T04:42:32.815296",
        "meta_mean_motion": 2.00566259,
        "meta_eccentricity": 0.00521242,
        "meta_inclination": 56.0822,
        "meta_ra_of_asc_node": 35.2386,
        "meta_arg_of_pericenter": 82.0997,
        "meta_mean_anomaly": 288.3285,
        "meta_ephemeris_type": 0,
        "meta_classification_type": "U",
        "meta_norad_cat_id": 35752,
        "meta_element_set_no": 999,
        "meta_rev_at_epoch": 11939,
        "meta_bstar": 0,
        "meta_mean_motion_dot": -6.6e-07,
        "meta_mean_motion_ddot": 0,
        "tle_line1": "1 35752U 09043A   25335.19621314 -.00000066  00000+0  00000+0 0  9994",
        "tle_line2": "2 35752  56.0822  35.2386 0052124  82.0997 288.3285  2.00566259119397"
      },
      "geometry": {
        "type": "Point",
        "coordinates": [
          -116.29084563987551,
          -35.459136522668544
        ]
      }
    },
    {
      "type": "Feature",
      "properties": {
        "norad_id": 36585,
        "name": "GPS BIIF-1  (PRN 25)",
        "group": "gps-ops",
        "lat": -15.21463162828916,
        "lon": -154.87111160902523,
        "alt_km": 20144.983125901574,
        "timestamp": "2025-12-04T23:34:05.981413+00:00",
        "meta_object_name": "GPS BIIF-1  (PRN 25)",
        "meta_object_id": "2010-022A",
        "meta_epoch": "2025-12-04T06:16:58.952352",
        "meta_mean_motion": 2.00552666,
        "meta_eccentricity": 0.0125761,
        "meta_inclination": 54.3017,
        "meta_ra_of_asc_node": 216.4159,
        "meta_arg_of_pericenter": 64.9818,
        "meta_mean_anomaly": 117.6828,
        "meta_ephemeris_type": 0,
        "meta_classification_type": "U",
        "meta_norad_cat_id": 36585,
        "meta_element_set_no": 999,
        "meta_rev_at_epoch": 11368,
        "meta_bstar": 0,
        "meta_mean_motion_dot": 7e-07,
        "meta_mean_motion_ddot": 0,
        "tle_line1": "1 36585U 10022A   25338.26179343  .00000070  00000+0  00000+0 0  9993",
        "tle_line2": "2 36585  54.3017 216.4159 0125761  64.9818 117.6828  2.00552666113689"
      },
      "geometry": {
        "type": "Point",
        "coordinates": [
          -154.87111160902523,
          -15.21463162828916
        ]
      }
    }
  ]
}